NORAD_CAT_ID,OBJECT_NAME,OBJECT_TYPE,EPOCH,MEAN_MOTION,ECCENTRICITY,INCLINATION,RA_OF_ASC_NODE,ARG_OF_PERICENTER,MEAN_ANOMALY,BSTAR,MEAN_MOTION_DOT,MEAN_MOTION_DDOT,TLE_LINE0,TLE_LINE1,TLE_LINE2,SEMIMAJOR_AXIS,PERIOD,APOGEE,PERIGEE,DECAYED
52642.0,STARLINK-3971,PAYLOAD,2022-08-21 22:00:00,15.08859125,0.0001831999999999,53.2131,316.0719,44.0528,133.2501,-0.0019524,-0.00031243,0.0,0 STARLINK-3971,1 52642U 22052AW  22233.91667824 -.00031243  00000-0 -19524-2 0  9993,2 52642  53.2131 316.0719 0001832  44.0528 133.2501 15.08859125  1303,6917.821999999999,95.436,540.9540000000002,538.42,0.0
52642.0,STARLINK-3971,PAYLOAD,2022-08-22 04:00:00,15.08845527,0.0001806,53.213,314.9487,48.9247,47.0873,-0.0005765,-9.453e-05,0.0,0 STARLINK-3971,1 52642U 22052AW  22234.16667824 -.00009453  00000-0 -57650-3 0  9992,2 52642  53.2130 314.9487 0001806  48.9247  47.0873 15.08845527 15921,6917.863,95.437,540.9780000000002,538.479,0.0
52642.0,STARLINK-3971,PAYLOAD,2022-08-22 12:00:00,15.08828218,0.0002034,53.213,313.454,46.6701,60.9411,-0.0007719,-0.00012548,0.0,0 STARLINK-3971,1 52642U 22052AW  22234.50001157 -.00012548  00000-0 -77190-3 0  9991,2 52642  53.2130 313.4540 0002034  46.6701  60.9411 15.08828218  1306,6917.916,95.438,541.189,538.374,0.0
52642.0,STARLINK-3971,PAYLOAD,2022-08-22 22:00:00,15.08839204,0.0001963,53.2132,311.5824,46.4388,165.6381,-0.0017116,-0.00027425,0.0,0 STARLINK-3971,1 52642U 22052AW  22234.91667824 -.00027425  00000-0 -17116-2 0  9996,2 52642  53.2132 311.5824 0001963  46.4388 165.6381 15.08839204  1307,6917.8830000000025,95.438,541.106,538.39,0.0
52642.0,STARLINK-3971,PAYLOAD,2022-08-23 12:00:00,15.08836006,0.000212,53.2132,308.9647,46.4046,95.9496,-0.00054034,-8.877e-05,0.0,0 STARLINK-3971,1 52642U 22052AW  22235.50001157 -.00008877  00000-0 -54034-3 0  9994,2 52642  53.2132 308.9647 0002120  46.4046  95.9496 15.08836006 16122,6917.893,95.438,541.224,538.2909999999998,0.0
52642.0,STARLINK-3971,PAYLOAD,2022-08-23 14:00:01,15.08819228,0.0002165,53.2134,308.5909,45.1878,190.0679,0.0018809999999999,0.00029758,0.0,0 STARLINK-3971,1 52642U 22052AW  22235.58334491  .00029758  00000-0  18810-2 0  9992,2 52642  53.2134 308.5909 0002165  45.1878 190.0679 15.08819228  1300,6917.944,95.439,541.307,538.311,0.0
52642.0,STARLINK-3971,PAYLOAD,2022-08-23 22:00:01,15.08849495,0.0002035,53.2135,307.093,46.5453,200.3565,-0.0014085999999999,-0.00022642,0.0,0 STARLINK-3971,1 52642U 22052AW  22235.91668981 -.00022642  00000-0 -14086-2 0  9991,2 52642  53.2135 307.0930 0002035  46.5453 200.3565 15.08849495  1307,6917.851,95.437,541.124,538.309,0.0
52642.0,STARLINK-3971,PAYLOAD,2022-08-24 04:00:00,15.08833859,0.0002008,53.2136,305.9701,50.6753,114.8623,0.0016445999999999,0.00025979,0.0,0 STARLINK-3971,1 52642U 22052AW  22236.16667824  .00025979  00000-0  16446-2 0  9990,2 52642  53.2136 305.9701 0002008  50.6753 114.8623 15.08833859 16228,6917.899,95.438,541.153,538.375,0.0
52642.0,STARLINK-3971,PAYLOAD,2022-08-24 14:00:01,15.08831571,0.0002215999999999,53.2137,304.1016,45.0084,225.0349,0.001661,0.0002624,0.0,0 STARLINK-3971,1 52642U 22052AW  22236.58334491  .00026240  00000-0  16610-2 0  9992,2 52642  53.2137 304.1016 0002216  45.0084 225.0349 15.08831571  1307,6917.906,95.438,541.304,538.238,0.0
52642.0,STARLINK-3971,PAYLOAD,2022-08-24 20:00:01,15.08872642,0.0002085,53.2135,302.9783,44.8012,143.9344,-0.0047717,-0.00075504,0.0,0 STARLINK-3971,1 52642U 22052AW  22236.83334491 -.00075504  00000-0 -47717-2 0  9991,2 52642  53.2135 302.9783 0002085  44.8012 143.9344 15.08872642 16329,6917.781,95.435,541.0880000000002,538.203,0.0
52642.0,STARLINK-3971,PAYLOAD,2022-08-24 22:00:00,15.08850194,0.0002024,53.2138,302.6038,45.5906,236.0536,-0.0028508,-0.00045387,0.0,0 STARLINK-3971,1 52642U 22052AW  22236.91667824 -.00045387  00000-0 -28508-2 0  9992,2 52642  53.2138 302.6038 0002024  45.5906 236.0536 15.08850194  1302,6917.849,95.437,541.114,538.314,0.0
52642.0,STARLINK-3971,PAYLOAD,2022-08-25 04:00:00,15.08820147,0.0001971,53.214,301.4801,49.3626,150.9807,0.0014172,0.00022327,0.0,0 STARLINK-3971,1 52642U 22052AW  22237.16667824  .00022327  00000-0  14172-2 0  9999,2 52642  53.2140 301.4801 0001971  49.3626 150.9807 15.08820147 16374,6917.941,95.439,541.17,538.443,0.0
52642.0,STARLINK-3971,PAYLOAD,2022-08-25 14:00:01,15.08809921,0.0002184,53.2137,299.6124,43.3997,261.4248,0.0023901,0.00037925,0.0,0 STARLINK-3971,1 52642U 22052AW  22237.58334491  .00037925  00000-0  23901-2 0  9996,2 52642  53.2137 299.6124 0002184  43.3997 261.4248 15.08809921  1309,6917.972,95.439,541.3480000000002,538.326,0.0
52642.0,STARLINK-3971,PAYLOAD,2022-08-25 18:00:00,15.08838657,0.0002136,53.2134,298.8636,42.8183,87.7867,-0.0007298999999999,-0.00011886,0.0,0 STARLINK-3971,1 52642U 22052AW  22237.75001157 -.00011886  00000-0 -72990-3 0  9998,2 52642  53.2134 298.8636 0002136  42.8183  87.7867 15.08838657 16460,6917.884,95.438,541.227,538.2719999999998,0.0
52642.0,STARLINK-3971,PAYLOAD,2022-08-25 22:00:00,15.08833524,0.0002013,53.2136,298.1145,45.8635,270.5384,-0.00054566,-8.961e-05,0.0,0 STARLINK-3971,1 52642U 22052AW  22237.91667824 -.00008961  00000-0 -54566-3 0  9994,2 52642  53.2136 298.1145 0002013  45.8635 270.5384 15.08833524  1300,6917.9,95.438,541.158,538.373,0.0
52642.0,STARLINK-3971,PAYLOAD,2022-08-26 14:00:01,15.08817392,0.0002173,53.2133,295.1231,43.7284,295.9194,0.0024555999999999,0.00038986,0.0,0 STARLINK-3971,1 52642U 22052AW  22238.58335648  .00038986  00000-0  24556-2 0  9997,2 52642  53.2133 295.1231 0002173  43.7284 295.9194 15.08817392  1309,6917.949000000001,95.439,541.318,538.311,0.0
52642.0,STARLINK-3971,PAYLOAD,2022-08-26 20:00:01,15.08855485,0.0002051,53.2131,293.9996,45.3071,212.9615,-0.0022364,-0.0003572,0.0,0 STARLINK-3971,1 52642U 22052AW  22238.83334491 -.00035720  00000-0 -22364-2 0  9990,2 52642  53.2131 293.9996 0002051  45.3071 212.9615 15.08855485 16621,6917.833000000001,95.437,541.117,538.279,0.0
52642.0,STARLINK-3971,PAYLOAD,2022-08-26 22:00:00,15.08836073,0.0001998,53.2131,293.6251,47.075,304.0996,7.199e-05,8.58e-06,0.0,0 STARLINK-3971,1 52642U 22052AW  22238.91667824  .00000858  00000-0  71990-4 0  9991,2 52642  53.2131 293.6251 0001998  47.0750 304.0996 15.08836073  1300,6917.892,95.438,541.14,538.375,0.0
52642.0,STARLINK-3971,PAYLOAD,2022-08-27 14:00:01,15.08824764,0.000216,53.2126,290.6338,44.4188,329.957,0.0025561,0.00040611,0.0,0 STARLINK-3971,1 52642U 22052AW  22239.58334491  .00040611  00000-0  25561-2 0  9998,2 52642  53.2126 290.6338 0002160  44.4188 329.9570 15.08824764  1303,6917.927,95.439,541.286,538.298,0.0
52642.0,STARLINK-3971,PAYLOAD,2022-08-27 22:00:00,15.08839818,0.0001995,53.2124,289.1356,48.5463,337.4314,0.00075463,0.00011742,0.0,0 STARLINK-3971,1 52642U 22052AW  22239.91667824  .00011742  00000-0  75463-3 0  9994,2 52642  53.2124 289.1356 0001995  48.5463 337.4314 15.08839818  1306,6917.880999999999,95.438,541.126,538.366,0.0
52642.0,STARLINK-3971,PAYLOAD,2022-08-28 04:00:00,15.08856418,0.0001984,53.2123,288.0131,51.3652,253.3089,0.00036357,5.505e-05,0.0,0 STARLINK-3971,1 52642U 22052AW  22240.16667824  .00005505  00000-0  36357-3 0  9992,2 52642  53.2123 288.0131 0001984  51.3652 253.3089 15.08856418 16827,6917.83,95.437,541.068,538.323,0.0
52642.0,STARLINK-3971,PAYLOAD,2022-08-28 14:00:01,15.08846067,0.000213,53.2126,286.1442,43.8768,5.3216,-0.000546,-8.969e-05,0.0,0 STARLINK-3971,1 52642U 22052AW  22240.58334491 -.00008969  00000-0 -54600-3 0  9999,2 52642  53.2126 286.1442 0002130  43.8768   5.3216 15.08846067  1305,6917.861999999999,95.437,541.2,538.253,0.0
52642.0,STARLINK-3971,PAYLOAD,2022-08-28 20:00:01,15.08839932,0.0002000999999999,53.213,285.0204,45.7932,282.1073,-0.0016761,-0.00026865,0.0,0 STARLINK-3971,1 52642U 22052AW  22240.83334491 -.00026865  00000-0 -16761-2 0  9997,2 52642  53.2130 285.0204 0002001  45.7932 282.1073 15.08839932 16939,6917.880999999999,95.438,541.13,538.361,0.0
52642.0,STARLINK-3971,PAYLOAD,2022-08-28 22:00:00,15.08817088,0.0001925,53.2134,284.6458,46.9999,13.804,0.001247,0.00019601,0.0,0 STARLINK-3971,1 52642U 22052AW  22240.91667824  .00019601  00000-0  12470-2 0  9996,2 52642  53.2134 284.6458 0001925  46.9999  13.8040 15.08817088  1305,6917.95,95.439,541.1469999999998,538.484,0.0
52642.0,STARLINK-3971,PAYLOAD,2022-08-29 12:00:00,15.088202,0.0002159,53.2134,282.0286,44.7188,306.3606,0.0018839,0.00029806,0.0,0 STARLINK-3971,1 52642U 22052AW  22241.50001157  .00029806  00000-0  18839-2 0  9996,2 52642  53.2134 282.0286 0002159  44.7188 306.3606 15.08820200 17037,6917.941,95.439,541.299,538.312,0.0
52642.0,STARLINK-3971,PAYLOAD,2022-08-29 14:00:01,15.08817186,0.0002147,53.2132,281.6545,43.0652,40.9115,0.0027286999999999,0.0004338,0.0,0 STARLINK-3971,1 52642U 22052AW  22241.58334491  .00043380  00000-0  27287-2 0  9994,2 52642  53.2132 281.6545 0002147  43.0652  40.9115 15.08817186  1301,6917.95,95.439,541.3,538.33,0.0
52642.0,STARLINK-3971,PAYLOAD,2022-08-29 22:00:00,15.08824136,0.0001985,53.2132,280.1561,47.2274,48.3417,0.0017519,0.00027692,0.0,0 STARLINK-3971,1 52642U 22052AW  22241.91667824  .00027692  00000-0  17519-2 0  9995,2 52642  53.2132 280.1561 0001985  47.2274  48.3417 15.08824136  1308,6917.929,95.439,541.1669999999998,538.4209999999998,0.0
52642.0,STARLINK-3971,PAYLOAD,2022-08-30 04:00:00,15.08857359,0.0002025,53.2133,279.0338,49.0136,325.2378,-0.001153,-0.000186,0.0,0 STARLINK-3971,1 52642U 22052AW  22242.16667824 -.00018600  00000-0 -11530-2 0  9991,2 52642  53.2133 279.0338 0002025  49.0136 325.2378 15.08857359 17135,6917.8269999999975,95.436,541.0930000000002,538.2909999999998,0.0
52642.0,STARLINK-3971,PAYLOAD,2022-08-30 14:00:01,15.08804649,0.0002164,53.2132,277.1646,41.0485,77.7106,0.0018854,0.00029817,0.0,0 STARLINK-3971,1 52642U 22052AW  22242.58334491  .00029817  00000-0  18854-2 0  9994,2 52642  53.2132 277.1646 0002164  41.0485  77.7106 15.08804649  1302,6917.988,95.44,541.35,538.356,0.0
